STARLINK-30785          
1 58191U 23167S   26068.55719495  .00000823  00000+0  40356-4 0  9994
2 58191  42.9994 144.2469 0001287 264.4263  95.6441 15.26746987130961
HERMES-4                
1 63833U 25052BP  26068.92081747  .00021364  00000+0  81237-3 0  9996
2 63833  97.4000 323.4610 0002652 154.9526 205.1842 15.26796135 54782
